OBJECT_NAME,OBJECT_ID,EPOCH,MEAN_MOTION,ECCENTRICITY,INCLINATION,RA_OF_ASC_NODE,ARG_OF_PERICENTER,MEAN_ANOMALY,EPHEMERIS_TYPE,CLASSIFICATION_TYPE,NORAD_CAT_ID,ELEMENT_SET_NO,REV_AT_EPOCH,BSTAR,MEAN_MOTION_DOT,MEAN_MOTION_DDOT
BEIDOU-2 IGSO-1 (C06),2010-036A,2026-05-12T16:32:11.849856,1.00282752,.00588559,54.2951,163.2807,224.5644,197.8413,0,U,36828,999,5774,0,-.41E-6,0
BEIDOU-2 G4 (C04),2010-057A,2026-05-13T18:43:28.540416,1.00272553,.0005536,3.5612,69.1365,210.3684,32.8828,0,U,37210,999,5694,0,-.98E-6,0
BEIDOU-2 IGSO-2 (C07),2010-068A,2026-05-12T15:42:56.818656,1.00295443,.005402,47.6166,272.2741,211.9967,87.9181,0,U,37256,999,5643,0,-.223E-5,0
BEIDOU-2 IGSO-3 (C08),2011-013A,2026-05-11T18:05:41.819136,1.00277207,.0034014,62.3600,40.4988,186.6429,22.0878,0,U,37384,999,5529,0,-.196E-5,0
BEIDOU-2 IGSO-4 (C09),2011-038A,2026-05-13T13:16:40.038816,1.00291146,.0158046,54.5863,165.9790,233.0040,123.0490,0,U,37763,999,5429,0,.8E-6,0
BEIDOU-2 IGSO-5 (C10),2011-073A,2026-05-13T20:27:21.748320,1.00256396,.0111792,47.7440,271.9697,220.6221,138.4497,0,U,37948,999,5278,0,-.172E-5,0
BEIDOU-2 G5 (C05),2012-008A,2026-05-13T19:57:13.967424,1.00271742,.0011043,3.4877,69.8908,271.4367,248.2370,0,U,38091,999,5202,0,.72E-6,0
BEIDOU-2 M3 (C11),2012-018A,2026-05-12T05:06:01.101600,1.86230132,.0019772,55.7895,306.0876,276.8668,82.9033,0,U,38250,999,9527,0,-.38E-6,0
BEIDOU-2 M4 (C12),2012-018B,2026-05-12T16:21:40.094784,1.86229765,.00109546,55.6900,305.2883,282.0858,77.7844,0,U,38251,999,9528,0,-.4E-6,0
BEIDOU-2 M6 (C14),2012-050B,2026-05-13T11:10:16.798944,1.86230860,.0014338,56.5154,64.0423,351.5107,8.4474,0,U,38775,999,9266,0,-.34E-6,0
BEIDOU-2 G6 (C02),2012-059A,2026-05-13T20:04:28.272576,1.00271967,.0010502,4.3342,73.8794,320.6816,222.2229,0,U,38953,999,4956,0,-.161E-5,0
BEIDOU-3S IGSO-1S (C31),2015-019A,2026-05-13T09:51:38.234016,1.00257803,.0037694,49.2629,295.8798,190.2202,347.0653,0,U,40549,999,4072,0,-.176E-5,0
BEIDOU-3S M2S (C58),2015-037A,2026-05-13T10:07:06.458592,1.86232251,.0007483,54.9026,303.2431,267.3673,92.5347,0,U,40748,999,7347,0,-.44E-6,0
BEIDOU-3S M1S (C57),2015-037B,2026-05-12T00:32:33.961056,1.86254900,.00041659,54.9005,303.2786,55.6265,304.4052,0,U,40749,999,7345,0,-.39E-6,0
BEIDOU-3S IGSO-2S (C56),2015-053A,2026-05-13T19:52:21.652896,1.00267682,.0064286,49.2776,259.1918,190.7677,176.2360,0,U,40938,999,3901,0,-.172E-5,0
BEIDOU-2 IGSO-6 (C13),2016-021A,2026-05-13T17:07:21.787968,1.00265272,.0057349,60.1795,38.3842,232.4091,312.1070,0,U,41434,999,3713,0,-.171E-5,0
BEIDOU-2 G7 (C03),2016-037A,2026-05-13T20:12:05.044320,1.00269622,.0007588,1.6346,68.9928,358.7830,217.4174,0,U,41586,999,654,0,-.339E-5,0
BEIDOU-3 M1 (C19),2017-069A,2026-05-13T05:32:25.658592,1.86231383,.0011652,56.6626,64.2366,320.3015,39.5961,0,U,43001,999,5795,0,-.32E-6,0
BEIDOU-3 M2 (C20),2017-069B,2026-05-13T04:04:07.055904,1.86229936,.0009693,56.6620,64.2738,344.6836,15.2699,0,U,43002,999,5794,0,-.32E-6,0
BEIDOU-3 M7 (C27),2018-003A,2026-05-13T10:45:16.475040,1.86228299,.0005233,54.3605,303.5264,85.3139,274.7340,0,U,43107,999,5670,0,-.46E-6,0
BEIDOU-3 M8 (C28),2018-003B,2026-05-12T20:33:19.033056,1.86231209,.0002179,54.3540,303.5291,277.0252,82.9401,0,U,43108,999,5670,0,-.43E-6,0
BEIDOU-3 M4 (C22),2018-018A,2026-05-13T07:10:45.213024,1.86231271,.0007804,56.6218,64.2994,7.7042,352.2902,0,U,43207,999,5609,0,-.33E-6,0
BEIDOU-3 M3 (C21),2018-018B,2026-05-11T05:13:35.563008,1.86231284,.00096428,56.6194,64.3718,332.4369,27.4998,0,U,43208,999,5605,0,-.22E-6,0
BEIDOU-3 M9 (C29),2018-029A,2026-05-13T01:06:39.818016,1.86228295,.0000806,54.2274,301.1779,101.6627,258.3330,0,U,43245,999,5524,0,-.44E-6,0
BEIDOU-3 M10 (C30),2018-029B,2026-05-12T23:32:24.078336,1.86229382,.0004582,54.2250,301.2067,37.0226,322.9958,0,U,43246,999,5522,0,-.43E-6,0
BEIDOU-2 IGSO-7 (C16),2018-057A,2026-05-13T11:39:57.509856,1.00261532,.010422,55.1877,163.3615,237.8550,117.1301,0,U,43539,999,2877,0,.2E-6,0
BEIDOU-3 M5 (C23),2018-062A,2026-05-12T03:08:49.695072,1.86229005,.00048146,54.0834,183.5303,287.8378,72.1926,0,U,43581,999,5296,0,.77E-6,0
BEIDOU-3 M6 (C24),2018-062B,2026-05-13T01:38:25.363968,1.86227902,.00047535,54.0830,183.4875,17.1476,342.9557,0,U,43582,999,5298,0,.88E-6,0
BEIDOU-3 M12 (C26),2018-067A,2026-05-09T05:57:09.162144,1.86227965,.00078401,54.1783,182.3610,32.7480,327.3771,0,U,43602,999,5239,0,.46E-6,0
BEIDOU-3 M11 (C25),2018-067B,2026-05-12T14:30:49.699296,1.86227468,.00044161,54.1758,182.2111,17.3082,342.7922,0,U,43603,999,5248,0,.85E-6,0
BEIDOU-3 M13 (C32),2018-072A,2026-05-13T02:19:16.599360,1.86231499,.0008353,56.5952,63.8177,321.4875,38.4366,0,U,43622,999,5200,0,-.33E-6,0
